{
    "links": {
        "self": "http://www.neowsapp.com/rest/v1/neo/3837714?api_key=iIulBulltgU6a56xZRHN4H3l9WmuAYTsLGpBGhQ2"
    },
    "id": "3837714",
    "neo_reference_id": "3837714",
    "name": "(2019 AQ6)",
    "designation": "2019 AQ6",
    "nasa_jpl_url": "http://ssd.jpl.nasa.gov/sbdb.cgi?sstr=3837714",
    "absolute_magnitude_h": 21.7,
    "estimated_diameter": {
        "kilometers": {
            "estimated_diameter_min": 0.1214940408,
            "estimated_diameter_max": 0.2716689341
        },
        "meters": {
            "estimated_diameter_min": 121.4940407996,
            "estimated_diameter_max": 271.6689340891
        },
        "miles": {
            "estimated_diameter_min": 0.0754928736,
            "estimated_diameter_max": 0.1688071972
        },
        "feet": {
            "estimated_diameter_min": 398.6025088171,
            "estimated_diameter_max": 891.3023057169
        }
    },
    "is_potentially_hazardous_asteroid": false,
    "close_approach_data": [
        {
            "close_approach_date": "2018-12-29",
            "close_approach_date_full": "2018-Dec-29 18:17",
            "epoch_date_close_approach": 1546107420000,
            "relative_velocity": {
                "kilometers_per_second": "3.7243431514",
                "kilometers_per_hour": "13407.6353450178",
                "miles_per_hour": "8330.9831953528"
            },
            "miss_distance": {
                "astronomical": "0.4080265159",
                "lunar": "158.7223146851",
                "kilometers": "61039897.682161133",
                "miles": "37928433.6548563154"
            },
            "orbiting_body": "Earth"
        },
        {
            "close_approach_date": "2021-01-29",
            "close_approach_date_full": "2021-Jan-29 18:10",
            "epoch_date_close_approach": 1611943800000,
            "relative_velocity": {
                "kilometers_per_second": "2.0591256334",
                "kilometers_per_hour": "7412.8522801044",
                "miles_per_hour": "4606.0581292682"
            },
            "miss_distance": {
                "astronomical": "1.6155574164",
                "lunar": "628.4518349796",
                "kilometers": "241683948.356143068",
                "miles": "150175441.7807396184"
            },
            "orbiting_body": "Juptr"
        }
    ],
    "orbital_data": {
        "orbit_id": "6",
        "orbit_determination_date": "2019-02-05 07:56:44",
        "first_observation_date": "2019-01-07",
        "last_observation_date": "2019-02-04",
        "data_arc_in_days": 28,
        "observations_used": 32,
        "orbit_uncertainty": "7",
        "minimum_orbit_intersection": ".253745",
        "jupiter_tisserand_invariant": "3.360",
        "epoch_osculation": "2459000.5",
        "eccentricity": ".4851189057717634",
        "semi_major_axis": "2.381965220162411",
        "inclination": "6.530387699686799",
        "ascending_node_longitude": "81.65634915565025",
        "orbital_period": "1342.769755803017",
        "perihelion_distance": "1.226428858970825",
        "perihelion_argument": "38.24127688372405",
        "aphelion_distance": "3.537501581353997",
        "perihelion_time": "2458523.566106083616",
        "mean_anomaly": "127.8671947054831",
        "mean_motion": ".268102553281526",
        "equinox": "J2000",
        "orbit_class": {
            "orbit_class_type": "AMO",
            "orbit_class_description": "Near-Earth asteroid orbits similar to that of 1221 Amor",
            "orbit_class_range": "1.017 AU < q (perihelion) < 1.3 AU"
        }
    },
    "is_sentry_object": false
}